[{"OBJECT_NAME":"SJ 16-02","OBJECT_ID":"2016-043A","EPOCH":"2026-03-09T22:18:39.296736","MEAN_MOTION":14.93231549,"ECCENTRICITY":0.00086699,"INCLINATION":75.0004,"RA_OF_ASC_NODE":106.8267,"ARG_OF_PERICENTER":275.0544,"MEAN_ANOMALY":84.9655,"EPHEMERIS_TYPE":0,"CLASSIFICATION_TYPE":"U","NORAD_CAT_ID":41634,"ELEMENT_SET_NO":999,"REV_AT_EPOCH":52632,"BSTAR":0.0001182302,"MEAN_MOTION_DOT":1.208e-5,"MEAN_MOTION_DDOT":0},{"OBJECT_NAME":"OBJECT B","OBJECT_ID":"2025-274B","EPOCH":"2026-03-09T17:22:54.825024","MEAN_MOTION":14.92604325,"ECCENTRICITY":0.00115111,"INCLINATION":97.7427,"RA_OF_ASC_NODE":359.4041,"ARG_OF_PERICENTER":330.3521,"MEAN_ANOMALY":29.7045,"EPHEMERIS_TYPE":0,"CLASSIFICATION_TYPE":"U","NORAD_CAT_ID":66651,"ELEMENT_SET_NO":999,"REV_AT_EPOCH":1537,"BSTAR":0.00043239201,"MEAN_MOTION_DOT":4.4e-5,"MEAN_MOTION_DDOT":0}]
